UNKNOWN                 
1 85023U          26013.57077315  .00015349  00000+0  22137-2 0  9993
2 85023  99.8489  40.9272 0002122 203.3286 308.4579 14.76400411633525
UNKNOWN                 
1 85027U          26011.41752271  .00000082  00000+0  15229-3 0  9992
2 85027  66.0420  28.8323 0174745 175.0499 185.2346 13.74261010608694
UNKNOWN                 
1 85047U          26012.36653286  .00012129  00000+0  19130-1 0  9993
2 85047 102.1766 349.2225 0158211 314.0212  44.7964 13.45199111580773
UNKNOWN                 
1 85061U          26012.90741549  .00003119  00000+0  12622-1 0  9997
2 85061 102.3944   4.5556 0256042 129.6273 263.9528 12.77227261559763
UNKNOWN                 
1 85100U          26013.11891266  .00000315  00000+0  10677-3 0  9992
2 85100  74.0449 164.7731 0012112  20.6207  97.4687 14.40740017637866
UNKNOWN                 
1 85106U          26013.54124705  .00000440  00000+0  53028-3 0  9998
2 85106 100.0556 120.9661 0009354 289.0353  95.7267 13.72946257607437
UNKNOWN                 
1 85151U          26012.88532129  .00011597  00000+0  15325-2 0  9999
2 85151  98.4035 243.3232 0010575  35.8033 324.3884 14.80124179484139
UNKNOWN                 
1 85210U          26013.36970140  .00000686  00000+0  68691-3 0  9990
2 85210  99.8562 160.2249 0218281 233.1030 154.3327 13.71604535606490
UNKNOWN                 
1 85217U          26008.52670018  .00001899  00000+0  50726-3 0  9997
2 85217  98.0285 106.1733 0208140  47.7177 314.1449 14.37341783631700
UNKNOWN                 
1 85237U          26010.96764549  .00003188  00000+0  67689-3 0  9992
2 85237  65.5308 138.1901 0514020  14.2441 347.2516 14.01191952612443
UNKNOWN                 
1 85238U          26013.56535641  .00000033  00000+0  62125-4 0  9998
2 85238  99.0649 306.8415 0064166 114.2536  64.3040 13.88348662615252
UNKNOWN                 
1 85246U          26013.29616901  .00000955  00000+0  35368-3 0  9997
2 85246  97.9875  18.8315 0222250 210.6625 148.1411 14.21617869627553
