CCSDS_OMM_VERS = 2.0
CREATION_DATE  = 
ORIGINATOR     = 

OBJECT_NAME    = UNKNOWN
OBJECT_ID      = 
CENTER_NAME    = EARTH
REF_FRAME      = TEME
TIME_SYSTEM    = UTC
MEAN_ELEMENT_THEORY = SGP/SGP4

EPOCH          = 2026-01-13T13:41:54.800160
MEAN_MOTION    = 14.76400411
ECCENTRICITY   = .0002122
INCLINATION    = 99.8489
RA_OF_ASC_NODE = 40.9272
ARG_OF_PERICENTER = 203.3286
MEAN_ANOMALY   = 308.4579

EPHEMERIS_TYPE = 0
CLASSIFICATION_TYPE = U
NORAD_CAT_ID   = 85023
ELEMENT_SET_NO = 999
REV_AT_EPOCH   = 63352
BSTAR          = .22137E-2
MEAN_MOTION_DOT = .15349E-3
MEAN_MOTION_DDOT = 0

CCSDS_OMM_VERS = 2.0
CREATION_DATE  = 
ORIGINATOR     = 

OBJECT_NAME    = UNKNOWN
OBJECT_ID      = 
CENTER_NAME    = EARTH
REF_FRAME      = TEME
TIME_SYSTEM    = UTC
MEAN_ELEMENT_THEORY = SGP/SGP4

EPOCH          = 2026-01-11T10:01:13.962144
MEAN_MOTION    = 13.74261010
ECCENTRICITY   = .0174745
INCLINATION    = 66.0420
RA_OF_ASC_NODE = 28.8323
ARG_OF_PERICENTER = 175.0499
MEAN_ANOMALY   = 185.2346

EPHEMERIS_TYPE = 0
CLASSIFICATION_TYPE = U
NORAD_CAT_ID   = 85027
ELEMENT_SET_NO = 999
REV_AT_EPOCH   = 60869
BSTAR          = .15229E-3
MEAN_MOTION_DOT = .82E-6
MEAN_MOTION_DDOT = 0

CCSDS_OMM_VERS = 2.0
CREATION_DATE  = 
ORIGINATOR     = 

OBJECT_NAME    = UNKNOWN
OBJECT_ID      = 
CENTER_NAME    = EARTH
REF_FRAME      = TEME
TIME_SYSTEM    = UTC
MEAN_ELEMENT_THEORY = SGP/SGP4

EPOCH          = 2026-01-12T08:47:48.439104
MEAN_MOTION    = 13.45199111
ECCENTRICITY   = .0158211
INCLINATION    = 102.1766
RA_OF_ASC_NODE = 349.2225
ARG_OF_PERICENTER = 314.0212
MEAN_ANOMALY   = 44.7964

EPHEMERIS_TYPE = 0
CLASSIFICATION_TYPE = U
NORAD_CAT_ID   = 85047
ELEMENT_SET_NO = 999
REV_AT_EPOCH   = 58077
BSTAR          = .1913E-1
MEAN_MOTION_DOT = .12129E-3
MEAN_MOTION_DDOT = 0

CCSDS_OMM_VERS = 2.0
CREATION_DATE  = 
ORIGINATOR     = 

OBJECT_NAME    = UNKNOWN
OBJECT_ID      = 
CENTER_NAME    = EARTH
REF_FRAME      = TEME
TIME_SYSTEM    = UTC
MEAN_ELEMENT_THEORY = SGP/SGP4

EPOCH          = 2026-01-12T21:46:40.698336
MEAN_MOTION    = 12.77227261
ECCENTRICITY   = .0256042
INCLINATION    = 102.3944
RA_OF_ASC_NODE = 4.5556
ARG_OF_PERICENTER = 129.6273
MEAN_ANOMALY   = 263.9528

EPHEMERIS_TYPE = 0
CLASSIFICATION_TYPE = U
NORAD_CAT_ID   = 85061
ELEMENT_SET_NO = 999
REV_AT_EPOCH   = 55976
BSTAR          = .12622E-1
MEAN_MOTION_DOT = .3119E-4
MEAN_MOTION_DDOT = 0

CCSDS_OMM_VERS = 2.0
CREATION_DATE  = 
ORIGINATOR     = 

OBJECT_NAME    = UNKNOWN
OBJECT_ID      = 
CENTER_NAME    = EARTH
REF_FRAME      = TEME
TIME_SYSTEM    = UTC
MEAN_ELEMENT_THEORY = SGP/SGP4

EPOCH          = 2026-01-13T02:51:14.053824
MEAN_MOTION    = 14.40740017
ECCENTRICITY   = .0012112
INCLINATION    = 74.0449
RA_OF_ASC_NODE = 164.7731
ARG_OF_PERICENTER = 20.6207
MEAN_ANOMALY   = 97.4687

EPHEMERIS_TYPE = 0
CLASSIFICATION_TYPE = U
NORAD_CAT_ID   = 85100
ELEMENT_SET_NO = 999
REV_AT_EPOCH   = 63786
BSTAR          = .10677E-3
MEAN_MOTION_DOT = .315E-5
MEAN_MOTION_DDOT = 0

CCSDS_OMM_VERS = 2.0
CREATION_DATE  = 
ORIGINATOR     = 

OBJECT_NAME    = UNKNOWN
OBJECT_ID      = 
CENTER_NAME    = EARTH
REF_FRAME      = TEME
TIME_SYSTEM    = UTC
MEAN_ELEMENT_THEORY = SGP/SGP4

EPOCH          = 2026-01-13T12:59:23.745120
MEAN_MOTION    = 13.72946257
ECCENTRICITY   = .0009354
INCLINATION    = 100.0556
RA_OF_ASC_NODE = 120.9661
ARG_OF_PERICENTER = 289.0353
MEAN_ANOMALY   = 95.7267

EPHEMERIS_TYPE = 0
CLASSIFICATION_TYPE = U
NORAD_CAT_ID   = 85106
ELEMENT_SET_NO = 999
REV_AT_EPOCH   = 60743
BSTAR          = .53028E-3
MEAN_MOTION_DOT = .44E-5
MEAN_MOTION_DDOT = 0

CCSDS_OMM_VERS = 2.0
CREATION_DATE  = 
ORIGINATOR     = 

OBJECT_NAME    = UNKNOWN
OBJECT_ID      = 
CENTER_NAME    = EARTH
REF_FRAME      = TEME
TIME_SYSTEM    = UTC
MEAN_ELEMENT_THEORY = SGP/SGP4

EPOCH          = 2026-01-12T21:14:51.759456
MEAN_MOTION    = 14.80124179
ECCENTRICITY   = .0010575
INCLINATION    = 98.4035
RA_OF_ASC_NODE = 243.3232
ARG_OF_PERICENTER = 35.8033
MEAN_ANOMALY   = 324.3884

EPHEMERIS_TYPE = 0
CLASSIFICATION_TYPE = U
NORAD_CAT_ID   = 85151
ELEMENT_SET_NO = 999
REV_AT_EPOCH   = 48413
BSTAR          = .15325E-2
MEAN_MOTION_DOT = .11597E-3
MEAN_MOTION_DDOT = 0

CCSDS_OMM_VERS = 2.0
CREATION_DATE  = 
ORIGINATOR     = 

OBJECT_NAME    = UNKNOWN
OBJECT_ID      = 
CENTER_NAME    = EARTH
REF_FRAME      = TEME
TIME_SYSTEM    = UTC
MEAN_ELEMENT_THEORY = SGP/SGP4

EPOCH          = 2026-01-13T08:52:22.200960
MEAN_MOTION    = 13.71604535
ECCENTRICITY   = .0218281
INCLINATION    = 99.8562
RA_OF_ASC_NODE = 160.2249
ARG_OF_PERICENTER = 233.1030
MEAN_ANOMALY   = 154.3327

EPHEMERIS_TYPE = 0
CLASSIFICATION_TYPE = U
NORAD_CAT_ID   = 85210
ELEMENT_SET_NO = 999
REV_AT_EPOCH   = 60649
BSTAR          = .68691E-3
MEAN_MOTION_DOT = .686E-5
MEAN_MOTION_DDOT = 0

CCSDS_OMM_VERS = 2.0
CREATION_DATE  = 
ORIGINATOR     = 

OBJECT_NAME    = UNKNOWN
OBJECT_ID      = 
CENTER_NAME    = EARTH
REF_FRAME      = TEME
TIME_SYSTEM    = UTC
MEAN_ELEMENT_THEORY = SGP/SGP4

EPOCH          = 2026-01-08T12:38:26.895552
MEAN_MOTION    = 14.37341783
ECCENTRICITY   = .020814
INCLINATION    = 98.0285
RA_OF_ASC_NODE = 106.1733
ARG_OF_PERICENTER = 47.7177
MEAN_ANOMALY   = 314.1449

EPHEMERIS_TYPE = 0
CLASSIFICATION_TYPE = U
NORAD_CAT_ID   = 85217
ELEMENT_SET_NO = 999
REV_AT_EPOCH   = 63170
BSTAR          = .50726E-3
MEAN_MOTION_DOT = .1899E-4
MEAN_MOTION_DDOT = 0

CCSDS_OMM_VERS = 2.0
CREATION_DATE  = 
ORIGINATOR     = 

OBJECT_NAME    = UNKNOWN
OBJECT_ID      = 
CENTER_NAME    = EARTH
REF_FRAME      = TEME
TIME_SYSTEM    = UTC
MEAN_ELEMENT_THEORY = SGP/SGP4

EPOCH          = 2026-01-10T23:13:24.570336
MEAN_MOTION    = 14.01191952
ECCENTRICITY   = .051402
INCLINATION    = 65.5308
RA_OF_ASC_NODE = 138.1901
ARG_OF_PERICENTER = 14.2441
MEAN_ANOMALY   = 347.2516

EPHEMERIS_TYPE = 0
CLASSIFICATION_TYPE = U
NORAD_CAT_ID   = 85237
ELEMENT_SET_NO = 999
REV_AT_EPOCH   = 61244
BSTAR          = .67689E-3
MEAN_MOTION_DOT = .3188E-4
MEAN_MOTION_DDOT = 0

CCSDS_OMM_VERS = 2.0
CREATION_DATE  = 
ORIGINATOR     = 

OBJECT_NAME    = UNKNOWN
OBJECT_ID      = 
CENTER_NAME    = EARTH
REF_FRAME      = TEME
TIME_SYSTEM    = UTC
MEAN_ELEMENT_THEORY = SGP/SGP4

EPOCH          = 2026-01-13T13:34:06.793824
MEAN_MOTION    = 13.88348662
ECCENTRICITY   = .0064166
INCLINATION    = 99.0649
RA_OF_ASC_NODE = 306.8415
ARG_OF_PERICENTER = 114.2536
MEAN_ANOMALY   = 64.3040

EPHEMERIS_TYPE = 0
CLASSIFICATION_TYPE = U
NORAD_CAT_ID   = 85238
ELEMENT_SET_NO = 999
REV_AT_EPOCH   = 61525
BSTAR          = .62125E-4
MEAN_MOTION_DOT = .33E-6
MEAN_MOTION_DDOT = 0

CCSDS_OMM_VERS = 2.0
CREATION_DATE  = 
ORIGINATOR     = 

OBJECT_NAME    = UNKNOWN
OBJECT_ID      = 
CENTER_NAME    = EARTH
REF_FRAME      = TEME
TIME_SYSTEM    = UTC
MEAN_ELEMENT_THEORY = SGP/SGP4

EPOCH          = 2026-01-13T07:06:29.002464
MEAN_MOTION    = 14.21617869
ECCENTRICITY   = .022225
INCLINATION    = 97.9875
RA_OF_ASC_NODE = 18.8315
ARG_OF_PERICENTER = 210.6625
MEAN_ANOMALY   = 148.1411

EPHEMERIS_TYPE = 0
CLASSIFICATION_TYPE = U
NORAD_CAT_ID   = 85246
ELEMENT_SET_NO = 999
REV_AT_EPOCH   = 62755
BSTAR          = .35368E-3
MEAN_MOTION_DOT = .955E-5
MEAN_MOTION_DDOT = 0

